NORAD_CAT_ID,OBJECT_NAME,OBJECT_TYPE,EPOCH,MEAN_MOTION,ECCENTRICITY,INCLINATION,RA_OF_ASC_NODE,ARG_OF_PERICENTER,MEAN_ANOMALY,BSTAR,MEAN_MOTION_DOT,MEAN_MOTION_DDOT,TLE_LINE0,TLE_LINE1,TLE_LINE2,SEMIMAJOR_AXIS,PERIOD,APOGEE,PERIGEE,DECAYED
51799.0,STARLINK-3637,PAYLOAD,2022-03-11 20:00:01,15.73250634,0.0001372,53.2189,73.3488,52.8,67.9471,-3.2724e-05,-5.22e-05,0.0,0 STARLINK-3637,1 51799U 22017AH  22070.83334491 -.00005220  00000-0 -32724-4 0  9992,2 51799  53.2189  73.3488 0001372  52.8000  67.9471 15.73250634  3465,6727.751,91.53,350.539,348.6930000000001,0.0
51799.0,STARLINK-3637,PAYLOAD,2022-03-11 22:00:00,15.73243235,0.0001392,53.2188,72.936,54.8509,178.14700000000005,3.1822e-05,3.856e-05,0.0,0 STARLINK-3637,1 51799U 22017AH  22070.91667824  .00003856  00000-0  31822-4 0  9999,2 51799  53.2188  72.9360 0001392  54.8509 178.1470 15.73243235  2749,6727.772,91.531,350.5730000000001,348.7,0.0
51799.0,STARLINK-3637,PAYLOAD,2022-03-12 04:00:00,15.732204800000002,0.0001626,53.2191,71.7003,54.474,155.1816,-0.00010535,-0.00015392,0.0,0 STARLINK-3637,1 51799U 22017AH  22071.16667824 -.00015392  00000-0 -10535-3 0  9994,2 51799  53.2191  71.7003 0001626  54.4740 155.1816 15.73220480  3519,6727.837,91.532,350.796,348.608,0.0
51799.0,STARLINK-3637,PAYLOAD,2022-03-12 12:00:00,15.73243449,0.0001618,53.2185,70.0519,49.0822,249.5215,-0.00012302,-0.00017882,0.0,0 STARLINK-3637,1 51799U 22017AH  22071.50001157 -.00017882  00000-0 -12302-3 0  9993,2 51799  53.2185  70.0519 0001618  49.0822 249.5215 15.73243449  3575,6727.771,91.531,350.725,348.548,0.0
51799.0,STARLINK-3637,PAYLOAD,2022-03-12 14:00:01,15.73250089,0.0001564,53.2184,69.6389,50.2813,0.5641,-0.00025854,-0.00036825,0.0,0 STARLINK-3637,1 51799U 22017AH  22071.58334491 -.00036825  00000-0 -25854-3 0  9995,2 51799  53.2184  69.6389 0001564  50.2813   0.5641 15.73250089  2853,6727.752,91.53,350.67,348.565,0.0
51799.0,STARLINK-3637,PAYLOAD,2022-03-12 22:00:00,15.73226532,0.0001302,53.2185,67.9878,57.1854,82.6146,-0.00023367,-0.00033321,0.0,0 STARLINK-3637,1 51799U 22017AH  22071.91667824 -.00033321  00000-0 -23367-3 0  9996,2 51799  53.2185  67.9878 0001302  57.1854  82.6146 15.73226532  2902,6727.82,91.532,350.56,348.809,0.0
51799.0,STARLINK-3637,PAYLOAD,2022-03-13 04:00:00,15.73211253,0.0001363,53.2186,66.7521,51.5553,64.9592,-0.00046475,-0.00065371,0.0,0 STARLINK-3637,1 51799U 22017AH  22072.16667824 -.00065371  00000-0 -46475-3 0  9999,2 51799  53.2186  66.7521 0001363  51.5553  64.9592 15.73211253  3673,6727.863,91.533,350.645,348.811,0.0
51799.0,STARLINK-3637,PAYLOAD,2022-03-13 14:00:01,15.73162437,0.0001361999999999,53.2186,64.6907,47.2621,270.3519,-0.00020307,-0.00028975,0.0,0 STARLINK-3637,1 51799U 22017AH  22072.58334491 -.00028975  00000-0 -20307-3 0  9991,2 51799  53.2186  64.6907 0001362  47.2621 270.3519 15.73162437  3003,6728.002,91.535,350.784,348.951,0.0
51799.0,STARLINK-3637,PAYLOAD,2022-03-13 22:00:01,15.73120737,0.0001250999999999,53.219,63.0396,54.9029,351.6319,0.00062445,0.00087637,0.0,0 STARLINK-3637,1 51799U 22017AH  22072.91668981  .00087637  00000-0  62445-3 0  9999,2 51799  53.2190  63.0396 0001251  54.9029 351.6319 15.73120737  3061,6728.121,91.538,350.82800000000015,349.144,0.0
51799.0,STARLINK-3637,PAYLOAD,2022-03-14 04:00:00,15.73259833,0.0001429,53.2192,61.8034,54.7127,328.5295,-0.00046674,-0.00065782,0.0,0 STARLINK-3637,1 51799U 22017AH  22073.16667824 -.00065782  00000-0 -46674-3 0  9997,2 51799  53.2192  61.8034 0001429  54.7127 328.5295 15.73259833  3833,6727.725,91.53,350.551,348.62800000000016,0.0
51799.0,STARLINK-3637,PAYLOAD,2022-03-14 12:00:00,15.73506739,0.0001688,53.2179,60.1504,44.2277,67.9329,-0.0059595,-0.00774259,0.0,0 STARLINK-3637,1 51799U 22017AH  22073.50001157 -.00774259  00000-0 -59595-2 0  9997,2 51799  53.2179  60.1504 0001688  44.2277  67.9329 15.73506739  3886,6727.021,91.515,350.021,347.75,0.0
51799.0,STARLINK-3637,PAYLOAD,2022-03-14 14:00:01,15.73287439,0.0001269,53.2185,59.7417,47.4614,177.1252,-0.00018062,-0.00025986,0.0,0 STARLINK-3637,1 51799U 22017AH  22073.58335648 -.00025986  00000-0 -18062-3 0  9991,2 51799  53.2185  59.7417 0001269  47.4614 177.1252 15.73287439  3168,6727.646,91.528,350.365,348.657,0.0
51799.0,STARLINK-3637,PAYLOAD,2022-03-14 20:00:01,15.73280527,0.0001144,53.2185,58.5032,58.1514,143.137,-0.00010393,-0.0001523,0.0,0 STARLINK-3637,1 51799U 22017AH  22073.83334491 -.00015230  00000-0 -10393-3 0  9994,2 51799  53.2185  58.5032 0001144  58.1514 143.1370 15.73280527  3938,6727.666,91.528,350.3,348.761,0.0
51799.0,STARLINK-3637,PAYLOAD,2022-03-14 22:00:00,15.73277865,0.0001235,53.2187,58.0907,59.9654,253.5579,-0.00044064,-0.0006221,0.0,0 STARLINK-3637,1 51799U 22017AH  22073.91667824 -.00062210  00000-0 -44064-3 0  9994,2 51799  53.2187  58.0907 0001235  59.9654 253.5579 15.73277865  3951,6727.6730000000025,91.529,350.369,348.707,0.0
51799.0,STARLINK-3637,PAYLOAD,2022-03-15 00:00:00,15.73283887,0.0001311,53.2188,57.6788,60.9739,4.7981,-0.00069491,-0.00097373,0.0,0 STARLINK-3637,1 51799U 22017AH  22074.00001157 -.00097373  00000-0 -69491-3 0  9995,2 51799  53.2188  57.6788 0001311  60.9739   4.7981 15.73283887  3960,6727.656,91.528,350.403,348.639,0.0
51799.0,STARLINK-3637,PAYLOAD,2022-03-15 02:00:01,15.73286547,0.0001361,53.2188,57.267,60.3257,117.6965,-0.0010467,-0.00145543,0.0,0 STARLINK-3637,1 51799U 22017AH  22074.08334491 -.00145543  00000-0 -10467-2 0  9994,2 51799  53.2188  57.2670 0001361  60.3257 117.6965 15.73286547  3243,6727.648,91.528,350.42900000000014,348.598,0.0
51799.0,STARLINK-3637,PAYLOAD,2022-03-15 20:00:01,15.73032623,0.0001394,53.2189,53.5549,63.5973,44.3633,0.00067975,0.00095179,0.0,0 STARLINK-3637,1 51799U 22017AH  22074.83334491  .00095179  00000-0  67975-3 0  9991,2 51799  53.2189  53.5549 0001394  63.5973  44.3633 15.73032623  4090,6728.371999999999,91.543,351.175,349.2990000000001,0.0
51799.0,STARLINK-3637,PAYLOAD,2022-03-15 22:00:00,15.73055905,0.0001422,53.2192,53.1425,65.0809,155.0614,0.0005696,0.00079586,0.0,0 STARLINK-3637,1 51799U 22017AH  22074.91667824  .00079586  00000-0  56960-3 0  9995,2 51799  53.2192  53.1425 0001422  65.0809 155.0614 15.73055905  3377,6728.306,91.542,351.12800000000016,349.214,0.0
51799.0,STARLINK-3637,PAYLOAD,2022-03-16 12:00:00,15.73209716,0.0001346,53.2188,50.2581,51.1344,234.4341,0.00032272,0.00044933,0.0,0 STARLINK-3637,1 51799U 22017AH  22075.50001157  .00044933  00000-0  32272-3 0  9990,2 51799  53.2188  50.2581 0001346  51.1344 234.4341 15.73209716  4199,6727.8669999999975,91.533,350.63800000000015,348.827,0.0
51799.0,STARLINK-3637,PAYLOAD,2022-03-16 14:00:01,15.732278699999998,0.00013,53.2189,49.8452,54.7362,343.0648,0.00017918,0.0002463,0.0,0 STARLINK-3637,1 51799U 22017AH  22075.58334491  .00024630  00000-0  17918-3 0  9990,2 51799  53.2189  49.8452 0001300  54.7362 343.0648 15.73227870  3489,6727.816,91.532,350.555,348.806,0.0
51799.0,STARLINK-3637,PAYLOAD,2022-03-16 20:00:01,15.73213556,0.0001195,53.2189,48.6069,62.7648,311.7567,0.00067213,0.00094834,0.0,0 STARLINK-3637,1 51799U 22017AH  22075.83334491  .00094834  00000-0  67213-3 0  9994,2 51799  53.2189  48.6069 0001195  62.7648 311.7567 15.73213556  3521,6727.857,91.532,350.526,348.918,0.0
51799.0,STARLINK-3637,PAYLOAD,2022-03-17 04:00:00,15.73297347,0.0001283,53.2191,46.9592,54.9792,48.5242,-0.00095149,-0.00132621,0.0,0 STARLINK-3637,1 51799U 22017AH  22076.16667824 -.00132621  00000-0 -95149-3 0  9998,2 51799  53.2191  46.9592 0001283  54.9792  48.5242 15.73297347  4309,6727.618,91.528,350.346,348.619,0.0
51799.0,STARLINK-3637,PAYLOAD,2022-03-17 12:00:00,15.73227879,0.0001395999999999,53.2189,45.3096,56.23,136.2689,-0.00075317,-0.00105137,0.0,0 STARLINK-3637,1 51799U 22017AH  22076.50001157 -.00105137  00000-0 -75317-3 0  9994,2 51799  53.2189  45.3096 0001396  56.2300 136.2689 15.73227879  4351,6727.816,91.532,350.62,348.741,0.0
51799.0,STARLINK-3637,PAYLOAD,2022-03-17 14:00:01,15.73197619,0.0001416,53.219,44.8965,62.7826,241.9557,-0.00045537,-0.00064038,0.0,0 STARLINK-3637,1 51799U 22017AH  22076.58334491 -.00064038  00000-0 -45537-3 0  9997,2 51799  53.2190  44.8965 0001416  62.7826 241.9557 15.73197619  3647,6727.901999999999,91.533,350.72,348.814,0.0
51799.0,STARLINK-3637,PAYLOAD,2022-03-17 22:00:00,15.73165279,0.000152,53.2189,43.2462,71.5749,322.0562,0.00049554,0.00069399,0.0,0 STARLINK-3637,1 51799U 22017AH  22076.91667824  .00069399  00000-0  49554-3 0  9999,2 51799  53.2189  43.2462 0001520  71.5749 322.0562 15.73165279  3697,6727.994000000002,91.535,350.88199999999995,348.837,0.0
51799.0,STARLINK-3637,PAYLOAD,2022-03-18 04:00:00,15.73195849,0.0001616,53.2183,42.0108,64.4989,305.7998,0.00020931,0.00028851,0.0,0 STARLINK-3637,1 51799U 22017AH  22077.16667824  .00028851  00000-0  20931-3 0  9993,2 51799  53.2183  42.0108 0001616  64.4989 305.7998 15.73195849  4461,6727.906999999997,91.533,350.8590000000001,348.685,0.0
51799.0,STARLINK-3637,PAYLOAD,2022-03-18 14:00:01,15.73276855,0.0001435,53.2176,39.9482,66.0789,145.3781,-0.00059385,-0.00083415,0.0,0 STARLINK-3637,1 51799U 22017AH  22077.58334491 -.00083415  00000-0 -59385-3 0  9994,2 51799  53.2176  39.9482 0001435  66.0789 145.3781 15.73276855  3721,6727.676,91.529,350.506,348.576,0.0
51799.0,STARLINK-3637,PAYLOAD,2022-03-18 22:00:00,15.73218594,0.0001212,53.2179,38.298,71.0735,229.3685,0.00019458,0.00026797,0.0,0 STARLINK-3637,1 51799U 22017AH  22077.91667824  .00026797  00000-0  19458-3 0  9995,2 51799  53.2179  38.2980 0001212  71.0735 229.3685 15.73218594  3776,6727.842,91.532,350.523,348.892,0.0
51799.0,STARLINK-3637,PAYLOAD,2022-03-19 02:00:01,15.73258596,0.0001232,53.2178,37.4742,62.4044,102.5697,-0.00064584,-0.00090515,0.0,0 STARLINK-3637,1 51799U 22017AH  22078.08335648 -.00090515  00000-0 -64584-3 0  9991,2 51799  53.2178  37.4742 0001232  62.4044 102.5697 15.73258596  4605,6727.728,91.53,350.422,348.764,0.0
